COMMENT,ORIGINATOR,NORAD_CAT_ID,OBJECT_NAME,OBJECT_TYPE,CLASSIFICATION_TYPE,INTLDES,EPOCH,EPOCH_MICROSECONDS,MEAN_MOTION,ECCENTRICITY,INCLINATION,RA_OF_ASC_NODE,ARG_OF_PERICENTER,MEAN_ANOMALY,EPHEMERIS_TYPE,ELEMENT_SET_NO,REV_AT_EPOCH,BSTAR,MEAN_MOTION_DOT,MEAN_MOTION_DDOT,FILE,TLE_LINE0,TLE_LINE1,TLE_LINE2,OBJECT_ID,OBJECT_NUMBER,SEMIMAJOR_AXIS,PERIOD,APOGEE,PERIGEE,DECAYED
GENERATED VIA SPACETRACK.ORG API,18 SPCS,51976,STARLINK-3663,PAYLOAD,U,22025W,2025-03-06 17:52:28,769952,15.23516651,0.0004453,53.2152,242.0655,45.299,314.8371,0,999,16564,0.0011184,0.00026816,0.0,4661439,0 STARLINK-3663,1 51976U 22025W   25065.74477743  .00026816  00000-0  11184-2 0  9990,2 51976  53.2152 242.0655 0004453  45.2990 314.8371 15.23516651165641,2022-025W,51976,6873.38,94.518,498.306,492.185,0
GENERATED VIA SPACETRACK.ORG API,18 SPCS,51976,STARLINK-3663,PAYLOAD,U,22025W,2025-03-07 04:53:44,98368,15.2354233,0.000448,53.2155,239.9569,45.5735,314.5629,0,999,16571,0.0010781,0.00025854,0.0,4661980,0 STARLINK-3663,1 51976U 22025W   25066.20398262  .00025854  00000-0  10781-2 0  9993,2 51976  53.2155 239.9569 0004480  45.5735 314.5629 15.23542330165717,2022-025W,51976,6873.303,94.517,498.247,492.089,0
GENERATED VIA SPACETRACK.ORG API,18 SPCS,51976,STARLINK-3663,PAYLOAD,U,22025W,2025-03-07 19:03:54,147744,15.23582206,0.0004588,53.2153,237.2462,45.7197,314.4177,0,999,16690,0.0012902,0.00031066,0.0,4662387,0 STARLINK-3663,1 51976U 22025W   25066.79437671  .00031066  00000-0  12902-2 0  9994,2 51976  53.2153 237.2462 0004588  45.7197 314.4177 15.23582206166906,2022-025W,51976,6873.183,94.514,498.202,491.895,0
GENERATED VIA SPACETRACK.ORG API,18 SPCS,51976,STARLINK-3663,PAYLOAD,U,22025W,2025-03-07 19:03:54,147744,15.23582206,0.0004588,53.2153,237.2462,45.7197,314.4177,0,999,16580,0.0012902,0.00031066,0.0,4662408,0 STARLINK-3663,1 51976U 22025W   25066.79437671  .00031066  00000-0  12902-2 0  9994,2 51976  53.2153 237.2462 0004588  45.7197 314.4177 15.23582206165804,2022-025W,51976,6873.183,94.514,498.202,491.895,0
GENERATED VIA SPACETRACK.ORG API,18 SPCS,51976,STARLINK-3663,PAYLOAD,U,22025W,2025-03-08 18:40:48,371232,15.23639873,0.0004704,53.2155,232.7277,46.4868,313.6521,0,999,16595,0.0013493,0.00032568,0.0,4663307,0 STARLINK-3663,1 51976U 22025W   25067.77833763  .00032568  00000-0  13493-2 0  9999,2 51976  53.2155 232.7277 0004704  46.4868 313.6521 15.23639873165956,2022-025W,51976,6873.01,94.511,498.108,491.642,0
GENERATED VIA SPACETRACK.ORG API,18 SPCS,51976,STARLINK-3663,PAYLOAD,U,22025W,2025-03-09 10:25:22,647360,15.23685026,0.0004751,53.2153,229.7146,47.829,312.3111,0,999,16605,0.0015513,0.00037571,0.0,4663925,0 STARLINK-3663,1 51976U 22025W   25068.43428990  .00037571  00000-0  15513-2 0  9999,2 51976  53.2153 229.7146 0004751  47.8290 312.3111 15.23685026166055,2022-025W,51976,6872.874,94.508,498.004,491.474,0
GENERATED VIA SPACETRACK.ORG API,18 SPCS,51976,STARLINK-3663,PAYLOAD,U,22025W,2025-03-09 18:17:39,135264,15.23706803,0.0004827,53.2154,228.2087,47.7912,312.3496,0,999,16720,0.001507,0.00036507,0.0,4664130,0 STARLINK-3663,1 51976U 22025W   25068.76225851  .00036507  00000-0  15070-2 0  9992,2 51976  53.2154 228.2087 0004827  47.7912 312.3496 15.23706803167209,2022-025W,51976,6872.808,94.506,497.991,491.356,0
GENERATED VIA SPACETRACK.ORG API,18 SPCS,51976,STARLINK-3663,PAYLOAD,U,22025W,2025-03-09 18:17:39,135264,15.23706803,0.0004827,53.2154,228.2087,47.7912,312.3496,0,999,16610,0.001507,0.00036507,0.0,4664361,0 STARLINK-3663,1 51976U 22025W   25068.76225851  .00036507  00000-0  15070-2 0  9992,2 51976  53.2154 228.2087 0004827  47.7912 312.3496 15.23706803166107,2022-025W,51976,6872.808,94.506,497.991,491.356,0
GENERATED VIA SPACETRACK.ORG API,18 SPCS,51976,STARLINK-3663,PAYLOAD,U,22025W,2025-03-10 10:02:10,923936,15.23743903,0.0004866,53.2154,225.1954,49.1146,311.0274,0,999,16620,0.0011201,0.00027043,0.0,4665056,0 STARLINK-3663,1 51976U 22025W   25069.41818199  .00027043  00000-0  11201-2 0  9995,2 51976  53.2154 225.1954 0004866  49.1146 311.0274 15.23743903166207,2022-025W,51976,6872.697,94.504,497.906,491.218,0
GENERATED VIA SPACETRACK.ORG API,18 SPCS,51976,STARLINK-3663,PAYLOAD,U,22025W,2025-03-10 17:54:26,330112,15.23760317,0.0004918,53.2153,223.6889,49.6417,310.501,0,999,16735,0.0010713,0.00025859,0.0,4665381,0 STARLINK-3663,1 51976U 22025W   25069.74613808  .00025859  00000-0  10713-2 0  9991,2 51976  53.2153 223.6889 0004918  49.6417 310.5010 15.23760317167357,2022-025W,51976,6872.647,94.503,497.892,491.133,0
GENERATED VIA SPACETRACK.ORG API,18 SPCS,51976,STARLINK-3663,PAYLOAD,U,22025W,2025-03-10 17:54:26,330112,15.23760317,0.0004918,53.2153,223.6889,49.6417,310.501,0,999,16625,0.0010713,0.00025859,0.0,4665419,0 STARLINK-3663,1 51976U 22025W   25069.74613808  .00025859  00000-0  10713-2 0  9991,2 51976  53.2153 223.6889 0004918  49.6417 310.5010 15.23760317166255,2022-025W,51976,6872.647,94.503,497.892,491.133,0
GENERATED VIA SPACETRACK.ORG API,18 SPCS,51976,STARLINK-3663,PAYLOAD,U,22025W,2025-03-11 09:38:56,71104,15.23797273,0.0004951,53.2153,220.6754,50.5218,309.6218,0,999,16635,0.0010564,0.00025521,0.0,4666185,0 STARLINK-3663,1 51976U 22025W   25070.40203786  .00025521  00000-0  10564-2 0  9996,2 51976  53.2153 220.6754 0004951  50.5218 309.6218 15.23797273166351,2022-025W,51976,6872.536,94.501,497.804,490.999,0
GENERATED VIA SPACETRACK.ORG API,18 SPCS,51976,STARLINK-3663,PAYLOAD,U,22025W,2025-03-11 17:31:10,414560,15.23820132,0.0005043,53.2154,219.1693,50.3078,309.8365,0,999,16640,0.0012944,0.00031394,0.0,4666552,0 STARLINK-3663,1 51976U 22025W   25070.72998165  .00031394  00000-0  12944-2 0  9992,2 51976  53.2154 219.1693 0005043  50.3078 309.8365 15.23820132166404,2022-025W,51976,6872.468,94.499,497.798,490.867,0
GENERATED VIA SPACETRACK.ORG API,18 SPCS,51976,STARLINK-3663,PAYLOAD,U,22025W,2025-03-11 17:31:10,414560,15.23820132,0.0005043,53.2154,219.1693,50.3078,309.8365,0,999,16750,0.0012944,0.00031394,0.0,4666893,0 STARLINK-3663,1 51976U 22025W   25070.72998165  .00031394  00000-0  12944-2 0  9992,2 51976  53.2154 219.1693 0005043  50.3078 309.8365 15.23820132167506,2022-025W,51976,6872.468,94.499,497.798,490.867,0
GENERATED VIA SPACETRACK.ORG API,18 SPCS,51976,STARLINK-3663,PAYLOAD,U,22025W,2025-03-12 13:58:57,713952,15.23880158,0.0005122,53.2153,215.2519,51.4458,308.6999,0,999,16653,0.0014281,0.00034751,0.0,4667317,0 STARLINK-3663,1 51976U 22025W   25071.58261243  .00034751  00000-0  14281-2 0  9993,2 51976  53.2153 215.2519 0005122  51.4458 308.6999 15.23880158166537,2022-025W,51976,6872.287,94.496,497.672,490.632,0
GENERATED VIA SPACETRACK.ORG API,18 SPCS,51976,STARLINK-3663,PAYLOAD,U,22025W,2025-03-12 17:07:50,877120,15.23890815,0.0005125,53.2151,214.6488,51.9334,308.2127,0,999,16655,0.0014889,0.00036264,0.0,4667689,0 STARLINK-3663,1 51976U 22025W   25071.71378330  .00036264  00000-0  14889-2 0  9999,2 51976  53.2151 214.6488 0005125  51.9334 308.2127 15.23890815166556,2022-025W,51976,6872.255,94.495,497.642,490.598,0
GENERATED VIA SPACETRACK.ORG API,18 SPCS,51976,STARLINK-3663,PAYLOAD,U,22025W,2025-03-12 17:07:50,877120,15.23890815,0.0005125,53.2151,214.6488,51.9334,308.2127,0,999,16765,0.0014889,0.00036264,0.0,4668028,0 STARLINK-3663,1 51976U 22025W   25071.71378330  .00036264  00000-0  14889-2 0  9999,2 51976  53.2151 214.6488 0005125  51.9334 308.2127 15.23890815167658,2022-025W,51976,6872.255,94.495,497.642,490.598,0
GENERATED VIA SPACETRACK.ORG API,18 SPCS,51976,STARLINK-3663,PAYLOAD,U,22025W,2025-03-13 15:10:00,488640,15.23969373,0.000513,53.2149,210.4293,53.313,306.834,0,999,16669,0.0015551,0.00037989,0.0,4668388,0 STARLINK-3663,1 51976U 22025W   25072.63195010  .00037989  00000-0  15551-2 0  9995,2 51976  53.2149 210.4293 0005130  53.3130 306.8340 15.23969373166699,2022-025W,51976,6872.019,94.49,497.409,490.359,0
GENERATED VIA SPACETRACK.ORG API,18 SPCS,51976,STARLINK-3663,PAYLOAD,U,22025W,2025-03-13 18:18:53,45280,15.23976643,0.0005213,53.2152,209.827,52.6752,307.4721,0,999,16781,0.0014448,0.00035266,0.0,4668715,0 STARLINK-3663,1 51976U 22025W   25072.76311395  .00035266  00000-0  14448-2 0  9995,2 51976  53.2152 209.8270 0005213  52.6752 307.4721 15.23976643167817,2022-025W,51976,6871.997,94.49,497.444,490.28,0
GENERATED VIA SPACETRACK.ORG API,18 SPCS,51976,STARLINK-3663,PAYLOAD,U,22025W,2025-03-13 18:18:53,45280,15.23976643,0.0005213,53.2152,209.827,52.6752,307.4721,0,999,16671,0.0014448,0.00035266,0.0,4668740,0 STARLINK-3663,1 51976U 22025W   25072.76311395  .00035266  00000-0  14448-2 0  9995,2 51976  53.2152 209.8270 0005213  52.6752 307.4721 15.23976643166715,2022-025W,51976,6871.997,94.49,497.444,490.28,0
GENERATED VIA SPACETRACK.ORG API,18 SPCS,51976,STARLINK-3663,PAYLOAD,U,22025W,2025-03-14 14:46:32,501280,15.2404444,0.0005367,53.2148,205.9113,53.3687,306.7805,0,999,16684,0.0015083,0.00036914,0.0,4669052,0 STARLINK-3663,1 51976U 22025W   25073.61565395  .00036914  00000-0  15083-2 0  9998,2 51976  53.2148 205.9113 0005367  53.3687 306.7805 15.24044440166849,2022-025W,51976,6871.793,94.485,497.346,489.97,0
GENERATED VIA SPACETRACK.ORG API,18 SPCS,51976,STARLINK-3663,PAYLOAD,U,22025W,2025-03-14 17:55:24,435840,15.24057152,0.0005489,53.2151,205.3074,53.0156,307.1344,0,999,16796,0.0015944,0.00039068,0.0,4669346,0 STARLINK-3663,1 51976U 22025W   25073.74681060  .00039068  00000-0  15944-2 0  9999,2 51976  53.2151 205.3074 0005489  53.0156 307.1344 15.24057152167967,2022-025W,51976,6871.755,94.485,497.392,489.848,0
GENERATED VIA SPACETRACK.ORG API,18 SPCS,51976,STARLINK-3663,PAYLOAD,U,22025W,2025-03-14 17:55:24,435840,15.24057152,0.0005489,53.2151,205.3074,53.0156,307.1344,0,999,16686,0.0015944,0.00039068,0.0,4669695,0 STARLINK-3663,1 51976U 22025W   25073.74681060  .00039068  00000-0  15944-2 0  9999,2 51976  53.2151 205.3074 0005489  53.0156 307.1344 15.24057152166865,2022-025W,51976,6871.755,94.485,497.392,489.848,0
